SXODC_L_00007199-19
1 88420U 22649ZS  26070.40864583  .00000000  00000+0  00000-0 0  9997
2 88420  30.0000 211.5134 0000000   0.0000 162.8012 13.83924482    19
SXODC_L_00007199-20
1 88421U 26478LF  26070.40864583  .00000000  00000+0  00000-0 0  9992
2 88421  30.0000 211.5134 0000000   0.0000 170.8012 13.83924482    19
SXODC_L_00007199-21
1 88422U 25416HM  26070.40864583  .00000000  00000+0  00000-0 0  9994
2 88422  30.0000 211.5134 0000000   0.0000 178.8012 13.83924482    18
SXODC_L_00007199-22
1 88423U 24200HR  26070.40864583  .00000000  00000+0  00000-0 0  9995
2 88423  30.0000 211.5134 0000000   0.0000 186.8012 13.83924482    18
SXODC_L_00007199-23
1 88424U 23414CG  26070.40864583  .00000000  00000+0  00000-0 0  9992
2 88424  30.0000 211.5134 0000000   0.0000 194.8012 13.83924482    18
SXODC_L_00007199-24
1 88425U 23900ZH  26070.40864583  .00000000  00000+0  00000-0 0  9993
2 88425  30.0000 211.5134 0000000   0.0000 202.8012 13.83924482    19
SXODC_L_00007199-25
1 88426U 25017RV  26070.40864583  .00000000  00000+0  00000-0 0  9995
2 88426  30.0000 211.5134 0000000   0.0000 210.8012 13.83924482    19
SXODC_L_00007199-26
1 88427U 24442UR  26070.40864583  .00000000  00000+0  00000-0 0  9997
2 88427  30.0000 211.5134 0000000   0.0000 218.8012 13.83924482    18
SXODC_L_00007199-27
1 88428U 23230SS  26070.40864583  .00000000  00000+0  00000-0 0  9992
2 88428  30.0000 211.5134 0000000   0.0000 226.8012 13.83924482    18
SXODC_L_00007199-28
1 88429U 24822DV  26070.40864583  .00000000  00000+0  00000-0 0  9991
2 88429  30.0000 211.5134 0000000   0.0000 234.8012 13.83924482    18
SXODC_L_00007199-29
1 88430U 25188RA  26070.40864583  .00000000  00000+0  00000-0 0  9999
2 88430  30.0000 211.5134 0000000   0.0000 242.8012 13.83924482    19
SXODC_L_00007199-30
1 88431U 26900AC  26070.40864583  .00000000  00000+0  00000-0 0  9993
2 88431  30.0000 211.5134 0000000   0.0000 250.8012 13.83924482    19
SXODC_L_00007199-31
1 88432U 25032DQ  26070.40864583  .00000000  00000+0  00000-0 0  9999
2 88432  30.0000 211.5134 0000000   0.0000 258.8012 13.83924482    18
SXODC_L_00007199-32
1 88433U 23482DI  26070.40864583  .00000000  00000+0  00000-0 0  9997
2 88433  30.0000 211.5134 0000000   0.0000 266.8012 13.83924482    18
SXODC_L_00007199-33
1 88434U 22485WK  26070.40864583  .00000000  00000+0  00000-0 0  9990
2 88434  30.0000 211.5134 0000000   0.0000 274.8012 13.83924482    18
SXODC_L_00007199-34
1 88435U 22389VK  26070.40864583  .00000000  00000+0  00000-0 0  9994
2 88435  30.0000 211.5134 0000000   0.0000 282.8012 13.83924482    18
SXODC_L_00007199-35
1 88436U 25360AK  26070.40864583  .00000000  00000+0  00000-0 0  9997
2 88436  30.0000 211.5134 0000000   0.0000 290.8012 13.83924482    18
SXODC_L_00007199-36
1 88437U 23348QP  26070.40864583  .00000000  00000+0  00000-0 0  9992
2 88437  30.0000 211.5134 0000000   0.0000 298.8012 13.83924482    17
SXODC_L_00007199-37
1 88438U 24559OM  26070.40864583  .00000000  00000+0  00000-0 0  9998
2 88438  30.0000 211.5134 0000000   0.0000 306.8012 13.83924482    18
SXODC_L_00007199-38
1 88439U 26170OA  26070.40864583  .00000000  00000+0  00000-0 0  9990
2 88439  30.0000 211.5134 0000000   0.0000 314.8012 13.83924482    18
SXODC_L_00007199-39
1 88440U 25348QE  26070.40864583  .00000000  00000+0  00000-0 0  9998
2 88440  30.0000 211.5134 0000000   0.0000 322.8012 13.83924482    19
SXODC_L_00007199-40
1 88441U 25997RX  26070.40864583  .00000000  00000+0  00000-0 0  9999
2 88441  30.0000 211.5134 0000000   0.0000 330.8012 13.83924482    19
SXODC_L_00007199-41
1 88442U 26047XK  26070.40864583  .00000000  00000+0  00000-0 0  9997
2 88442  30.0000 211.5134 0000000   0.0000 338.8012 13.83924482    18
SXODC_L_00007199-42
1 88443U 25993TX  26070.40864583  .00000000  00000+0  00000-0 0  9997
2 88443  30.0000 211.5134 0000000   0.0000 346.8012 13.83924482    18
SXODC_L_00007199-43
1 88444U 23056EW  26070.40864583  .00000000  00000+0  00000-0 0  9996
2 88444  30.0000 211.5134 0000000   0.0000 354.8012 13.83924482    18
SXODC_L_00007199-44
1 88445U 26206QD  26070.40864583  .00000000  00000+0  00000-0 0  9997
2 88445  30.0000 211.5134 0000000   0.0000   2.8012 13.83924482    19
SXODC_L_00007199-45
1 88446U 25439ES  26070.40864583  .00000000  00000+0  00000-0 0  9995
2 88446  30.0000 211.5134 0000000   0.0000  10.8012 13.83924482    19
SXODC_L_00007200-01
1 88447U 24478HF  26070.40864583  .00000000  00000+0  00000-0 0  9998
2 88447  30.0000 212.5816 0000000   0.0000  18.8961 13.83924482    19
SXODC_L_00007200-02
1 88448U 23385MZ  26070.40864583  .00000000  00000+0  00000-0 0  9995
2 88448  30.0000 212.5816 0000000   0.0000  26.8961 13.83924482    19
SXODC_L_00007200-03
1 88449U 23170ET  26070.40864583  .00000000  00000+0  00000-0 0  9998
2 88449  30.0000 212.5816 0000000   0.0000  34.8961 13.83924482    19
SXODC_L_00007200-04
1 88450U 24892AH  26070.40864583  .00000000  00000+0  00000-0 0  9992
2 88450  30.0000 212.5816 0000000   0.0000  42.8961 13.83924482    10
SXODC_L_00007200-05
1 88451U 22078YZ  26070.40864583  .00000000  00000+0  00000-0 0  9997
2 88451  30.0000 212.5816 0000000   0.0000  50.8961 13.83924482    10
SXODC_L_00007200-06
1 88452U 23064KY  26070.40864583  .00000000  00000+0  00000-0 0  9994
2 88452  30.0000 212.5816 0000000   0.0000  58.8961 13.83924482    19
SXODC_L_00007200-07
1 88453U 25597TS  26070.40864583  .00000000  00000+0  00000-0 0  9998
2 88453  30.0000 212.5816 0000000   0.0000  66.8961 13.83924482    19
SXODC_L_00007200-08
1 88454U 23713RH  26070.40864583  .00000000  00000+0  00000-0 0  9997
2 88454  30.0000 212.5816 0000000   0.0000  74.8961 13.83924482    19
SXODC_L_00007200-09
1 88455U 26537KB  26070.40864583  .00000000  00000+0  00000-0 0  9995
2 88455  30.0000 212.5816 0000000   0.0000  82.8961 13.83924482    19
SXODC_L_00007200-10
1 88456U 22593YV  26070.40864583  .00000000  00000+0  00000-0 0  9994
2 88456  30.0000 212.5816 0000000   0.0000  90.8961 13.83924482    19
SXODC_L_00007200-11
1 88457U 22471JN  26070.40864583  .00000000  00000+0  00000-0 0  9990
2 88457  30.0000 212.5816 0000000   0.0000  98.8961 13.83924482    18
SXODC_L_00007200-12
1 88458U 22661ZE  26070.40864583  .00000000  00000+0  00000-0 0  9992
2 88458  30.0000 212.5816 0000000   0.0000 106.8961 13.83924482    19
SXODC_L_00007200-13
1 88459U 22114OB  26070.40864583  .00000000  00000+0  00000-0 0  9996
2 88459  30.0000 212.5816 0000000   0.0000 114.8961 13.83924482    19
SXODC_L_00007200-14
1 88460U 23190HN  26070.40864583  .00000000  00000+0  00000-0 0  9993
2 88460  30.0000 212.5816 0000000   0.0000 122.8961 13.83924482    10
SXODC_L_00007200-15
1 88461U 24517GA  26070.40864583  .00000000  00000+0  00000-0 0  9998
2 88461  30.0000 212.5816 0000000   0.0000 130.8961 13.83924482    10
SXODC_L_00007200-16
1 88462U 23935TU  26070.40864583  .00000000  00000+0  00000-0 0  9992
2 88462  30.0000 212.5816 0000000   0.0000 138.8961 13.83924482    19
SXODC_L_00007200-17
1 88463U 25751H   26070.40864583  .00000000  00000+0  00000-0 0  9991
2 88463  30.0000 212.5816 0000000   0.0000 146.8961 13.83924482    19
SXODC_L_00007200-18
1 88464U 25085NE  26070.40864583  .00000000  00000+0  00000-0 0  9992
2 88464  30.0000 212.5816 0000000   0.0000 154.8961 13.83924482    19
SXODC_L_00007200-19
1 88465U 25734WR  26070.40864583  .00000000  00000+0  00000-0 0  9994
2 88465  30.0000 212.5816 0000000   0.0000 162.8961 13.83924482    19
SXODC_L_00007200-20
1 88466U 24210TG  26070.40864583  .00000000  00000+0  00000-0 0  9993
2 88466  30.0000 212.5816 0000000   0.0000 170.8961 13.83924482    19
SXODC_L_00007200-21
1 88467U 25097UP  26070.40864583  .00000000  00000+0  00000-0 0  9998
2 88467  30.0000 212.5816 0000000   0.0000 178.8961 13.83924482    18
SXODC_L_00007200-22
1 88468U 25787HX  26070.40864583  .00000000  00000+0  00000-0 0  9995
2 88468  30.0000 212.5816 0000000   0.0000 186.8961 13.83924482    18
SXODC_L_00007200-23
1 88469U 25156YO  26070.40864583  .00000000  00000+0  00000-0 0  9996
2 88469  30.0000 212.5816 0000000   0.0000 194.8961 13.83924482    18
SXODC_L_00007200-24
1 88470U 26786MF  26070.40864583  .00000000  00000+0  00000-0 0  9998
2 88470  30.0000 212.5816 0000000   0.0000 202.8961 13.83924482    10
SXODC_L_00007200-25
1 88471U 26922RF  26070.40864583  .00000000  00000+0  00000-0 0  9991
2 88471  30.0000 212.5816 0000000   0.0000 210.8961 13.83924482    10
SXODC_L_00007200-26
1 88472U 23675ZM  26070.40864583  .00000000  00000+0  00000-0 0  9994
2 88472  30.0000 212.5816 0000000   0.0000 218.8961 13.83924482    19
SXODC_L_00007200-27
1 88473U 24299XD  26070.40864583  .00000000  00000+0  00000-0 0  9998
2 88473  30.0000 212.5816 0000000   0.0000 226.8961 13.83924482    19
SXODC_L_00007200-28
1 88474U 23450IB  26070.40864583  .00000000  00000+0  00000-0 0  9997
2 88474  30.0000 212.5816 0000000   0.0000 234.8961 13.83924482    19
SXODC_L_00007200-29
1 88475U 23520LT  26070.40864583  .00000000  00000+0  00000-0 0  9996
2 88475  30.0000 212.5816 0000000   0.0000 242.8961 13.83924482    19
SXODC_L_00007200-30
1 88476U 22834T   26070.40864583  .00000000  00000+0  00000-0 0  9994
2 88476  30.0000 212.5816 0000000   0.0000 250.8961 13.83924482    19
SXODC_L_00007200-31
1 88477U 24651WX  26070.40864583  .00000000  00000+0  00000-0 0  9994
2 88477  30.0000 212.5816 0000000   0.0000 258.8961 13.83924482    18
SXODC_L_00007200-32
1 88478U 22358WJ  26070.40864583  .00000000  00000+0  00000-0 0  9997
2 88478  30.0000 212.5816 0000000   0.0000 266.8961 13.83924482    18
SXODC_L_00007200-33
1 88479U 23543NP  26070.40864583  .00000000  00000+0  00000-0 0  9995
2 88479  30.0000 212.5816 0000000   0.0000 274.8961 13.83924482    18
SXODC_L_00007200-34
1 88480U 22563DD  26070.40864583  .00000000  00000+0  00000-0 0  9998
2 88480  30.0000 212.5816 0000000   0.0000 282.8961 13.83924482    19
SXODC_L_00007200-35
1 88481U 23920ZT  26070.40864583  .00000000  00000+0  00000-0 0  9997
2 88481  30.0000 212.5816 0000000   0.0000 290.8961 13.83924482    19
